{
  "type": "FeatureCollection",
  "features": [
    {
      "type": "Feature",
      "properties": {
        "norad_id": 66639,
        "name": "STARLINK-35908",
        "group": "last-30-days",
        "lat": 27.923692925107822,
        "lon": -48.35674090889086,
        "alt_km": 417.8713255812527,
        "timestamp": "2025-12-19T10:49:59.922650+00:00",
        "meta_object_name": "STARLINK-35908",
        "meta_object_id": "2025-271Y",
        "meta_epoch": "2025-12-18T18:43:29.288640",
        "meta_mean_motion": 15.48774254,
        "meta_eccentricity": 0.0001437,
        "meta_inclination": 53.1596,
        "meta_ra_of_asc_node": 158.2632,
        "meta_arg_of_pericenter": 60.2516,
        "meta_mean_anomaly": 299.8636,
        "meta_ephemeris_type": 0,
        "meta_classification_type": "U",
        "meta_norad_cat_id": 66639,
        "meta_element_set_no": 999,
        "meta_rev_at_epoch": 514,
        "meta_bstar": -0.0048438706,
        "meta_mean_motion_dot": -0.00256344,
        "meta_mean_motion_ddot": 0,
        "tle_line1": "1 66639U 25271Y   25352.78020010 -.00256344  00000+0 -48439-2 0  9997",
        "tle_line2": "2 66639  53.1596 158.2632 0001437  60.2516 299.8636 15.48774254  5143"
      },
      "geometry": {
        "type": "Point",
        "coordinates": [
          -48.35674090889086,
          27.923692925107822
        ]
      }
    },
    {
      "type": "Feature",
      "properties": {
        "norad_id": 66640,
        "name": "STARLINK-35921",
        "group": "last-30-days",
        "lat": 50.50766507006559,
        "lon": -90.33671149304658,
        "alt_km": 434.4593364591756,
        "timestamp": "2025-12-19T10:49:59.922661+00:00",
        "meta_object_name": "STARLINK-35921",
        "meta_object_id": "2025-271Z",
        "meta_epoch": "2025-12-18T18:49:13.174464",
        "meta_mean_motion": 15.41936023,
        "meta_eccentricity": 0.00033205,
        "meta_inclination": 53.1595,
        "meta_ra_of_asc_node": 158.2879,
        "meta_arg_of_pericenter": 28.0904,
        "meta_mean_anomaly": 332.0281,
        "meta_ephemeris_type": 0,
        "meta_classification_type": "U",
        "meta_norad_cat_id": 66640,
        "meta_element_set_no": 999,
        "meta_rev_at_epoch": 514,
        "meta_bstar": -0.0088998726,
        "meta_mean_motion_dot": -0.00367119,
        "meta_mean_motion_ddot": 0,
        "tle_line1": "1 66640U 25271Z   25352.78418026 -.00367119  00000+0 -88999-2 0  9995",
        "tle_line2": "2 66640  53.1595 158.2879 0003320  28.0904 332.0281 15.41936023  5146"
      },
      "geometry": {
        "type": "Point",
        "coordinates": [
          -90.33671149304658,
          50.50766507006559
        ]
      }
    },
    {
      "type": "Feature",
      "properties": {
        "norad_id": 66641,
        "name": "STARLINK-35923",
        "group": "last-30-days",
        "lat": 19.121981279191747,
        "lon": -40.035426709666744,
        "alt_km": 416.36773645440553,
        "timestamp": "2025-12-19T10:49:59.922676+00:00",
        "meta_object_name": "STARLINK-35923",
        "meta_object_id": "2025-271AA",
        "meta_epoch": "2025-12-18T21:46:42.243168",
        "meta_mean_motion": 15.49275017,
        "meta_eccentricity": 0.00010602,
        "meta_inclination": 53.1591,
        "meta_ra_of_asc_node": 157.633,
        "meta_arg_of_pericenter": 102.4316,
        "meta_mean_anomaly": 257.6812,
        "meta_ephemeris_type": 0,
        "meta_classification_type": "U",
        "meta_norad_cat_id": 66641,
        "meta_element_set_no": 999,
        "meta_rev_at_epoch": 516,
        "meta_bstar": 0.00079935027,
        "meta_mean_motion_dot": 0.00044207,
        "meta_mean_motion_ddot": 0,
        "tle_line1": "1 66641U 25271AA  25352.90743337  .00044207  00000+0  79935-3 0  9995",
        "tle_line2": "2 66641  53.1591 157.6330 0001060 102.4316 257.6812 15.49275017  5162"
      },
      "geometry": {
        "type": "Point",
        "coordinates": [
          -40.035426709666744,
          19.121981279191747
        ]
      }
    },
    {
      "type": "Feature",
      "properties": {
        "norad_id": 66642,
        "name": "STARLINK-35926",
        "group": "last-30-days",
        "lat": 20.42037228909965,
        "lon": -41.1734427430848,
        "alt_km": 416.2741536793801,
        "timestamp": "2025-12-19T10:49:59.922686+00:00",
        "meta_object_name": "STARLINK-35926",
        "meta_object_id": "2025-271AB",
        "meta_epoch": "2025-12-18T21:47:10.508064",
        "meta_mean_motion": 15.49326349,
        "meta_eccentricity": 0.00013302,
        "meta_inclination": 53.1589,
        "meta_ra_of_asc_node": 157.6354,
        "meta_arg_of_pericenter": 67.9754,
        "meta_mean_anomaly": 292.1396,
        "meta_ephemeris_type": 0,
        "meta_classification_type": "U",
        "meta_norad_cat_id": 66642,
        "meta_element_set_no": 999,
        "meta_rev_at_epoch": 512,
        "meta_bstar": 0.0013607483,
        "meta_mean_motion_dot": 0.00076017,
        "meta_mean_motion_ddot": 0,
        "tle_line1": "1 66642U 25271AB  25352.90776051  .00076017  00000+0  13607-2 0  9992",
        "tle_line2": "2 66642  53.1589 157.6354 0001330  67.9754 292.1396 15.49326349  5129"
      },
      "geometry": {
        "type": "Point",
        "coordinates": [
          -41.1734427430848,
          20.42037228909965
        ]
      }
    },
    {
      "type": "Feature",
      "properties": {
        "norad_id": 66643,
        "name": "STARLINK-35918",
        "group": "last-30-days",
        "lat": 23.373735285240198,
        "lon": -43.86318867929222,
        "alt_km": 415.53359882739187,
        "timestamp": "2025-12-19T10:49:59.922696+00:00",
        "meta_object_name": "STARLINK-35918",
        "meta_object_id": "2025-271AC",
        "meta_epoch": "2025-12-18T20:15:17.256672",
        "meta_mean_motion": 15.49355287,
        "meta_eccentricity": 0.00012817,
        "meta_inclination": 53.1592,
        "meta_ra_of_asc_node": 157.9495,
        "meta_arg_of_pericenter": 86.0423,
        "meta_mean_anomaly": 274.0733,
        "meta_ephemeris_type": 0,
        "meta_classification_type": "U",
        "meta_norad_cat_id": 66643,
        "meta_element_set_no": 999,
        "meta_rev_at_epoch": 515,
        "meta_bstar": 0.0005250722,
        "meta_mean_motion_dot": 0.0002891,
        "meta_mean_motion_ddot": 0,
        "tle_line1": "1 66643U 25271AC  25352.84394973  .00028910  00000+0  52507-3 0  9997",
        "tle_line2": "2 66643  53.1592 157.9495 0001281  86.0423 274.0733 15.49355287  5153"
      },
      "geometry": {
        "type": "Point",
        "coordinates": [
          -43.86318867929222,
          23.373735285240198
        ]
      }
    },
    {
      "type": "Feature",
      "properties": {
        "norad_id": 66644,
        "name": "STARLINK-35938",
        "group": "last-30-days",
        "lat": 21.864037213852466,
        "lon": -42.46863750762171,
        "alt_km": 415.86844886725794,
        "timestamp": "2025-12-19T10:49:59.922707+00:00",
        "meta_object_name": "STARLINK-35938",
        "meta_object_id": "2025-271AD",
        "meta_epoch": "2025-12-18T20:14:46.464576",
        "meta_mean_motion": 15.49333178,
        "meta_eccentricity": 5.997e-05,
        "meta_inclination": 53.1591,
        "meta_ra_of_asc_node": 157.9473,
        "meta_arg_of_pericenter": 93.6054,
        "meta_mean_anomaly": 266.5024,
        "meta_ephemeris_type": 0,
        "meta_classification_type": "U",
        "meta_norad_cat_id": 66644,
        "meta_element_set_no": 999,
        "meta_rev_at_epoch": 515,
        "meta_bstar": 0.0013201346,
        "meta_mean_motion_dot": 0.00073731,
        "meta_mean_motion_ddot": 0,
        "tle_line1": "1 66644U 25271AD  25352.84359334  .00073731  00000+0  13201-2 0  9998",
        "tle_line2": "2 66644  53.1591 157.9473 0000599  93.6054 266.5024 15.49333178  5158"
      },
      "geometry": {
        "type": "Point",
        "coordinates": [
          -42.46863750762171,
          21.864037213852466
        ]
      }
    },
    {
      "type": "Feature",
      "properties": {
        "norad_id": 66645,
        "name": "SHENZHOU-22",
        "group": "last-30-days",
        "lat": 37.324898518772315,
        "lon": 35.65379517308157,
        "alt_km": 378.2826855022977,
        "timestamp": "2025-12-19T10:49:59.922719+00:00",
        "meta_object_name": "SHENZHOU-22",
        "meta_object_id": "2025-272A",
        "meta_epoch": "2025-12-18T22:15:16.316352",
        "meta_mean_motion": 15.59443301,
        "meta_eccentricity": 0.00076984,
        "meta_inclination": 41.4683,
        "meta_ra_of_asc_node": 339.1361,
        "meta_arg_of_pericenter": 85.4974,
        "meta_mean_anomaly": 274.6744,
        "meta_ephemeris_type": 0,
        "meta_classification_type": "U",
        "meta_norad_cat_id": 66645,
        "meta_element_set_no": 999,
        "meta_rev_at_epoch": 26357,
        "meta_bstar": 0.00026140428,
        "meta_mean_motion_dot": 0.0002103,
        "meta_mean_motion_ddot": 0,
        "tle_line1": "1 66645U 25272A   25352.92727218  .00021030  00000+0  26140-3 0  9991",
        "tle_line2": "2 66645  41.4683 339.1361 0007698  85.4974 274.6744 15.59443301263570"
      },
      "geometry": {
        "type": "Point",
        "coordinates": [
          35.65379517308157,
          37.324898518772315
        ]
      }
    }
  ]
}